NORAD_CAT_ID,OBJECT_NAME,OBJECT_TYPE,EPOCH,MEAN_MOTION,ECCENTRICITY,INCLINATION,RA_OF_ASC_NODE,ARG_OF_PERICENTER,MEAN_ANOMALY,BSTAR,MEAN_MOTION_DOT,MEAN_MOTION_DDOT,TLE_LINE0,TLE_LINE1,TLE_LINE2,SEMIMAJOR_AXIS,PERIOD,APOGEE,PERIGEE,DECAYED
54185.0,STARLINK-5235,PAYLOAD,2022-12-04 12:00:00,15.73289491,0.0004032,53.2147,318.5377,0.2679,230.3595,-0.00045091,-0.00063705,0.0,0 STARLINK-5235,1 54185U 22141AE  22338.50001157 -.00063705  00000-0 -45091-3 0  9995,2 54185  53.2147 318.5377 0004032   0.2679 230.3595 15.73289491  6152,6727.64,91.528,352.218,346.792,0.0
54185.0,STARLINK-5235,PAYLOAD,2022-12-04 14:00:01,15.73294099,0.0003901,53.2151,318.123,359.3499,343.5301,-0.00063139,-0.00088707,0.0,0 STARLINK-5235,1 54185U 22141AE  22338.58334491 -.00088707  00000-0 -63139-3 0  9995,2 54185  53.2151 318.1230 0003901 359.3499 343.5301 15.73294099  1307,6727.627,91.528,352.116,346.867,0.0
54185.0,STARLINK-5235,PAYLOAD,2022-12-04 22:00:00,15.73356109,0.0003394,53.216,316.4664,343.6487,88.2254,-0.0048469,-0.00636462,0.0,0 STARLINK-5235,1 54185U 22141AE  22338.91667824 -.00636462  00000-0 -48469-2 0  9996,2 54185  53.2160 316.4664 0003394 343.6487  88.2254 15.73356109  6225,6727.45,91.524,351.598,347.032,0.0
54185.0,STARLINK-5235,PAYLOAD,2022-12-05 06:00:00,15.72846666,0.0003578,53.2171,314.8152,303.7702,217.0115,-0.0073673,-0.00915247,0.0,0 STARLINK-5235,1 54185U 22141AE  22339.25001157 -.00915247  00000-0 -73673-2 0  9991,2 54185  53.2171 314.8152 0003578 303.7702 217.0115 15.72846666  6276,6728.903,91.554,353.175,348.36,0.0
54185.0,STARLINK-5235,PAYLOAD,2022-12-05 14:00:01,15.72191136,0.0005583,53.217,313.1663,280.4024,328.5477,-0.0095586,-0.0114738,0.0,0 STARLINK-5235,1 54185U 22141AE  22339.58335648 -.01147380  00000-0 -95586-2 0  9995,2 54185  53.2170 313.1663 0005583 280.4024 328.5477 15.72191136  6320,6730.773,91.592,356.396,348.88,0.0
54185.0,STARLINK-5235,PAYLOAD,2022-12-05 22:00:01,15.71357739,0.000696,53.2176,311.5178,270.7448,65.4132,-0.0095805,-0.01114706,0.0,0 STARLINK-5235,1 54185U 22141AE  22339.91668981 -.01114706  00000-0 -95805-2 0  9991,2 54185  53.2176 311.5178 0006960 270.7448  65.4132 15.71357739  1301,6733.153,91.64,359.704,350.331,0.0
54185.0,STARLINK-5235,PAYLOAD,2022-12-06 14:00:01,15.69708257,0.0005317,53.2168,308.2344,271.4029,236.2312,-0.010041,-0.01091102,0.0,0 STARLINK-5235,1 54185U 22141AE  22340.58335648 -.01091102  00000-0 -10041-1 0  9999,2 54185  53.2168 308.2344 0005317 271.4029 236.2312 15.69708257  1308,6737.869000000002,91.737,363.316,356.151,0.0
54185.0,STARLINK-5235,PAYLOAD,2022-12-06 22:00:00,15.68941566,0.000284,53.2166,306.5937,283.9374,307.8712,-0.01094,-0.01162328,0.0,0 STARLINK-5235,1 54185U 22141AE  22340.91667824 -.01162328  00000-0 -10940-1 0  9997,2 54185  53.2166 306.5937 0002840 283.9374 307.8712 15.68941566  6534,6740.064,91.782,363.843,360.014,0.0
54185.0,STARLINK-5235,PAYLOAD,2022-12-07 22:00:00,15.6650916,0.0001245,53.217,301.6844,61.8205,56.9164,-0.012254,-0.01175797,0.0,0 STARLINK-5235,1 54185U 22141AE  22341.91667824 -.01175797  00000-0 -12254-1 0  9992,2 54185  53.2170 301.6844 0001245  61.8205  56.9164 15.66509160  6694,6747.0390000000025,91.924,369.744,368.064,0.0
54185.0,STARLINK-5235,PAYLOAD,2022-12-08 14:00:01,15.64853783,0.0001124,53.2172,298.4221,75.58,202.9025,-0.012661,-0.01139904,0.0,0 STARLINK-5235,1 54185U 22141AE  22342.58334491 -.01139904  00000-0 -12661-1 0  9999,2 54185  53.2172 298.4221 0001124  75.5800 202.9025 15.64853783  1300,6751.795999999999,92.021,374.42,372.902,0.0
54185.0,STARLINK-5235,PAYLOAD,2022-12-08 22:00:01,15.64038344,0.0001046,53.2176,296.7928,73.5303,283.4168,-0.013027,-0.01135648,0.0,0 STARLINK-5235,1 54185U 22141AE  22342.91668981 -.01135648  00000-0 -13027-1 0  9998,2 54185  53.2176 296.7928 0001046  73.5303 283.4168 15.64038344  1308,6754.143,92.069,376.714,375.301,0.0
54185.0,STARLINK-5235,PAYLOAD,2022-12-09 14:00:01,15.62411549,0.0001179,53.2173,293.5432,81.0566,69.6888,-0.013909,-0.01136866,0.0,0 STARLINK-5235,1 54185U 22141AE  22343.58334491 -.01136866  00000-0 -13909-1 0  9990,2 54185  53.2173 293.5432 0001179  81.0566  69.6888 15.62411549  1305,6758.83,92.165,381.492,379.899,0.0
54185.0,STARLINK-5235,PAYLOAD,2022-12-10 14:00:01,15.59969158,9.89e-05,53.2176,288.6817,86.3263,287.8822,-0.015256,-0.01134128,0.0,0 STARLINK-5235,1 54185U 22141AE  22344.58334491 -.01134128  00000-0 -15256-1 0  9997,2 54185  53.2176 288.6817 0000989  86.3263 287.8822 15.59969158  7117,6765.8830000000025,92.31,388.417,387.079,0.0
54185.0,STARLINK-5235,PAYLOAD,2022-12-10 22:00:00,15.59155091,0.0001167,53.2178,287.0653,69.2515,17.488,-0.0157229999999999,-0.01133047,0.0,0 STARLINK-5235,1 54185U 22141AE  22344.91667824 -.01133047  00000-0 -15723-1 0  9991,2 54185  53.2178 287.0653 0001167  69.2515  17.4880 15.59155091  1308,6768.238,92.358,390.893,389.31300000000016,0.0
54185.0,STARLINK-5235,PAYLOAD,2022-12-11 06:00:00,15.58338603,0.0001247,53.2176,285.4526,82.5688,75.7244,-0.016146,-0.01128363,0.0,0 STARLINK-5235,1 54185U 22141AE  22345.25001157 -.01128363  00000-0 -16146-1 0  9995,2 54185  53.2176 285.4526 0001247  82.5688  75.7244 15.58338603  7213,6770.602,92.406,393.311,391.62300000000016,0.0
54185.0,STARLINK-5235,PAYLOAD,2022-12-11 14:00:01,15.57528745,0.0001223,53.2176,283.8384,77.35,151.5187,-0.016749,-0.01134467,0.0,0 STARLINK-5235,1 54185U 22141AE  22345.58334491 -.01134467  00000-0 -16749-1 0  9992,2 54185  53.2176 283.8384 0001223  77.3500 151.5187 15.57528745  1306,6772.949000000001,92.454,395.642,393.985,0.0
54185.0,STARLINK-5235,PAYLOAD,2022-12-11 22:00:01,15.56714291,0.0001122,53.2176,282.228,87.9575,210.5741,-0.017242,-0.01132727,0.0,0 STARLINK-5235,1 54185U 22141AE  22345.91668981 -.01132727  00000-0 -17242-1 0  9999,2 54185  53.2176 282.2280 0001122  87.9575 210.5741 15.56714291  7323,6775.311,92.503,397.936,396.416,0.0
54185.0,STARLINK-5235,PAYLOAD,2022-12-12 14:00:01,15.55084918,0.0001061,53.2175,279.0129,81.9539,352.7762,-0.018267,-0.01129602,0.0,0 STARLINK-5235,1 54185U 22141AE  22346.58334491 -.01129602  00000-0 -18267-1 0  9995,2 54185  53.2175 279.0129 0001061  81.9539 352.7762 15.55084918  7422,6780.043000000002,92.599,402.627,401.18800000000016,0.0
54185.0,STARLINK-5235,PAYLOAD,2022-12-12 22:00:00,15.54286339,0.0001257,53.2169,277.4092,82.9651,58.4216,-0.019188,-0.0114992,0.0,0 STARLINK-5235,1 54185U 22141AE  22346.91667824 -.01149920  00000-0 -19188-1 0  9999,2 54185  53.2169 277.4092 0001257  82.9651  58.4216 15.54286339  1304,6782.365,92.647,405.082,403.377,0.0
54185.0,STARLINK-5235,PAYLOAD,2022-12-13 06:00:00,15.53453887,0.0001306,53.2175,275.8075,71.1643,135.9169,-0.019272,-0.01123026,0.0,0 STARLINK-5235,1 54185U 22141AE  22347.25001157 -.01123026  00000-0 -19272-1 0  9991,2 54185  53.2175 275.8075 0001306  71.1643 135.9169 15.53453887  7521,6784.788000000001,92.697,407.539,405.767,0.0
54185.0,STARLINK-5235,PAYLOAD,2022-12-13 14:00:01,15.52644219,0.0001152,53.2177,274.2049,84.5563,187.2334,-0.01998,-0.01129626,0.0,0 STARLINK-5235,1 54185U 22141AE  22347.58334491 -.01129626  00000-0 -19980-1 0  9995,2 54185  53.2177 274.2049 0001152  84.5563 187.2334 15.52644219  1309,6787.146,92.745,409.793,408.229,0.0
54185.0,STARLINK-5235,PAYLOAD,2022-12-13 22:00:00,15.51831162,0.0001121,53.2178,272.6066,80.1367,255.3832,-0.020593,-0.01130356,0.0,0 STARLINK-5235,1 54185U 22141AE  22347.91667824 -.01130356  00000-0 -20593-1 0  9995,2 54185  53.2178 272.6066 0001121  80.1367 255.3832 15.51831162  7637,6789.517,92.794,412.143,410.621,0.0
54185.0,STARLINK-5235,PAYLOAD,2022-12-14 14:00:01,15.50129019,0.000136,53.2174,269.4152,79.8359,20.2238,-0.0062746,-0.00344332,0.0,0 STARLINK-5235,1 54185U 22141AE  22348.58334491 -.00344332  00000-0 -62746-2 0  9997,2 54185  53.2174 269.4152 0001360  79.8359  20.2238 15.50129019  7734,6794.486,92.895,417.275,415.427,0.0
54185.0,STARLINK-5235,PAYLOAD,2022-12-14 22:00:00,15.49984288,0.0001709,53.2141,267.829,89.6052,71.4766,-0.0015082,-0.00085425,0.0,0 STARLINK-5235,1 54185U 22141AE  22348.91667824 -.00085425  00000-0 -15082-2 0  9999,2 54185  53.2141 267.8290 0001709  89.6052  71.4766 15.49984288  7783,6794.909000000002,92.904,417.935,415.61300000000006,0.0
54185.0,STARLINK-5235,PAYLOAD,2022-12-15 14:00:01,15.49884978,0.0001409999999999,53.2137,264.6417,93.4503,189.6157,0.00036598,0.00020374,0.0,0 STARLINK-5235,1 54185U 22141AE  22349.58334491  .00020374  00000-0  36598-3 0  9990,2 54185  53.2137 264.6417 0001410  93.4503 189.6157 15.49884978  7890,6795.199000000001,92.91,418.022,416.106,0.0
54185.0,STARLINK-5235,PAYLOAD,2022-12-15 22:00:00,15.49911247,0.0001531999999999,53.2144,263.0485,92.4265,251.5611,-0.0014925,-0.00084333,0.0,0 STARLINK-5235,1 54185U 22141AE  22349.91667824 -.00084333  00000-0 -14925-2 0  9992,2 54185  53.2144 263.0485 0001532  92.4265 251.5611 15.49911247  1309,6795.121999999999,92.909,418.028,415.946,0.0
54185.0,STARLINK-5235,PAYLOAD,2022-12-16 06:00:00,15.49927885,0.0001571999999999,53.2154,261.4545,85.5288,319.356,-0.0041985,-0.00232175,0.0,0 STARLINK-5235,1 54185U 22141AE  22350.25001157 -.00232175  00000-0 -41985-2 0  9997,2 54185  53.2154 261.4545 0001572  85.5288 319.3560 15.49927885  7993,6795.074000000001,92.908,418.007,415.871,0.0
54185.0,STARLINK-5235,PAYLOAD,2022-12-16 14:00:01,15.49837622,9.55e-05,53.2142,259.8621,95.6868,10.1594,0.0010227,0.00057925,0.0,0 STARLINK-5235,1 54185U 22141AE  22350.58334491  .00057925  00000-0  10227-2 0  9994,2 54185  53.2142 259.8621 0000955  95.6868  10.1594 15.49837622  8045,6795.3380000000025,92.913,417.852,416.554,0.0
54185.0,STARLINK-5235,PAYLOAD,2022-12-16 22:00:00,15.49891368,0.0001066,53.2144,258.2698,90.0799,76.6444,-0.00014188,-8.497e-05,0.0,0 STARLINK-5235,1 54185U 22141AE  22350.91667824 -.00008497  00000-0 -14188-3 0  9993,2 54185  53.2144 258.2698 0001066  90.0799  76.6444 15.49891368  1300,6795.181,92.91,417.77,416.321,0.0
